start=new Date('2023-03-12T00:00:00.000Z').valueOf();
sats=[{"FILE":"3857847","MEAN_ANOMALY":"310.9575","APOAPSIS":"540.977","ELEMENT_SET_NO":"999","ARG_OF_PERICENTER":"49.1564","RCS_SIZE":"LARGE","DECAY_DATE":null,"TIME_SYSTEM":"UTC","MEAN_MOTION_DOT":"0.00006911","NORAD_CAT_ID":"53926","SEMIMAJOR_AXIS":"6917.939","MEAN_ELEMENT_THEORY":"SGP4","RA_OF_ASC_NODE":"179.0997","ECCENTRICITY":"0.00016950","OBJECT_TYPE":"PAYLOAD","BSTAR":"0.00045214000000","INCLINATION":"53.2163","MEAN_MOTION":"15.08820681","PERIOD":"95.439","LAUNCH_DATE":"2022-09-24","PERIAPSIS":"538.632","MEAN_MOTION_DDOT":"0.0000000000000","TLE_LINE2":"2 53926  53.2163 179.0997 0001695  49.1564 310.9575 15.08820681 26781","TLE_LINE1":"1 53926U 22119AS  23070.90432578  .00006911  00000-0  45214-3 0  9996","EPOCH":"2023-03-11T21:42:13.747392","COUNTRY_CODE":"US","REF_FRAME":"TEME","CENTER_NAME":"EARTH","REV_AT_EPOCH":"2678","SITE":"AFETR","CLASSIFICATION_TYPE":"U","OBJECT_NAME":"STARLINK-5014","EPHEMERIS_TYPE":"0","OBJECT_ID":"2022-119AS","GP_ID":"227891417"},{"TLE_LINE1":"1 53927U 22119AT  23070.59153850 -.00003134  00000-0 -17883-3 0  9992","TLE_LINE2":"2 53927  53.2181 180.7058 0001448 100.5655 259.5500 15.08851443 26728","REF_FRAME":"TEME","COUNTRY_CODE":"US","EPOCH":"2023-03-11T14:11:48.926400","CLASSIFICATION_TYPE":"U","SITE":"AFETR","REV_AT_EPOCH":"2672","CENTER_NAME":"EARTH","GP_ID":"227891667","OBJECT_ID":"2022-119AT","EPHEMERIS_TYPE":"0","OBJECT_NAME":"STARLINK-5008","DECAY_DATE":null,"RCS_SIZE":"LARGE","ARG_OF_PERICENTER":"100.5655","ELEMENT_SET_NO":"999","APOAPSIS":"540.712","MEAN_ANOMALY":"259.5500","FILE":"3857847","RA_OF_ASC_NODE":"180.7058","MEAN_ELEMENT_THEORY":"SGP4","SEMIMAJOR_AXIS":"6917.845","NORAD_CAT_ID":"53927","MEAN_MOTION_DOT":"-0.00003134","TIME_SYSTEM":"UTC","INCLINATION":"53.2181","BSTAR":"-0.00017883000000","OBJECT_TYPE":"PAYLOAD","ECCENTRICITY":"0.00014480","MEAN_MOTION_DDOT":"0.0000000000000","PERIAPSIS":"538.709","LAUNCH_DATE":"2022-09-24","PERIOD":"95.437","MEAN_MOTION":"15.08851443"},{"EPOCH":"2023-03-11T17:09:59.309856","COUNTRY_CODE":"US","REF_FRAME":"TEME","TLE_LINE2":"2 53928  53.2196 175.0519 0001964 126.6839 233.4334 15.08841790 26810","TLE_LINE1":"1 53928U 22119AU  23070.71526979 -.00002533  00000-0 -14108-3 0  9992","EPHEMERIS_TYPE":"0","OBJECT_NAME":"STARLINK-5009","OBJECT_ID":"2022-119AU","GP_ID":"227892918","CENTER_NAME":"EARTH","REV_AT_EPOCH":"2681","SITE":"AFETR","CLASSIFICATION_TYPE":"U","NORAD_CAT_ID":"53928","MEAN_MOTION_DOT":"-0.00002533","TIME_SYSTEM":"UTC","SEMIMAJOR_AXIS":"6917.875","MEAN_ELEMENT_THEORY":"SGP4","RA_OF_ASC_NODE":"175.0519","MEAN_ANOMALY":"233.4334","FILE":"3857847","APOAPSIS":"541.099","ARG_OF_PERICENTER":"126.6839","ELEMENT_SET_NO":"999","RCS_SIZE":"LARGE","DECAY_DATE":null,"MEAN_MOTION":"15.08841790","PERIOD":"95.437","LAUNCH_DATE":"2022-09-24","PERIAPSIS":"538.381","MEAN_MOTION_DDOT":"0.0000000000000","ECCENTRICITY":"0.00019640","OBJECT_TYPE":"PAYLOAD","INCLINATION":"53.2196","BSTAR":"-0.00014108000000"},{"SITE":"AFETR","CENTER_NAME":"EARTH","REV_AT_EPOCH":"2666","CLASSIFICATION_TYPE":"U","GP_ID":"227893169","OBJECT_NAME":"STARLINK-5018","EPHEMERIS_TYPE":"0","OBJECT_ID":"2022-119AV","TLE_LINE2":"2 53929  53.2166 185.2373 0001750 101.7263 258.3926 15.08837116 26660","TLE_LINE1":"1 53929U 22119AV  23070.63336872  .00012253  00000-0  78668-3 0  9994","EPOCH":"2023-03-11T15:12:03.057408","REF_FRAME":"TEME","COUNTRY_CODE":"US","ECCENTRICITY":"0.00017500","OBJECT_TYPE":"PAYLOAD","BSTAR":"0.00078668000000","INCLINATION":"53.2166","LAUNCH_DATE":"2022-09-24","MEAN_MOTION":"15.08837116","PERIOD":"95.438","PERIAPSIS":"538.544","MEAN_MOTION_DDOT":"0.0000000000000","ELEMENT_SET_NO":"999","ARG_OF_PERICENTER":"101.7263","FILE":"3857847","MEAN_ANOMALY":"258.3926","APOAPSIS":"540.965","RCS_SIZE":"LARGE","DECAY_DATE":null,"MEAN_ELEMENT_THEORY":"SGP4","MEAN_MOTION_DOT":"0.00012253","TIME_SYSTEM":"UTC","NORAD_CAT_ID":"53929","SEMIMAJOR_AXIS":"6917.889","RA_OF_ASC_NODE":"185.2373"},{"BSTAR":"0.00001067300000","INCLINATION":"53.2197","OBJECT_TYPE":"PAYLOAD","ECCENTRICITY":"0.00010990","MEAN_MOTION_DDOT":"0.0000000000000","PERIAPSIS":"538.959","PERIOD":"95.437","MEAN_MOTION":"15.08848437","LAUNCH_DATE":"2022-09-24","DECAY_DATE":null,"RCS_SIZE":"LARGE","APOAPSIS":"540.480","FILE":"3857847","MEAN_ANOMALY":"260.9927","ELEMENT_SET_NO":"999","ARG_OF_PERICENTER":"99.1189","RA_OF_ASC_NODE":"174.9658","SEMIMAJOR_AXIS":"6917.855","MEAN_MOTION_DOT":"-0.00000118","TIME_SYSTEM":"UTC","NORAD_CAT_ID":"53930","MEAN_ELEMENT_THEORY":"SGP4","CLASSIFICATION_TYPE":"U","REV_AT_EPOCH":"2681","CENTER_NAME":"EARTH","SITE":"AFETR","OBJECT_ID":"2022-119AW","EPHEMERIS_TYPE":"0","OBJECT_NAME":"STARLINK-5010","GP_ID":"227891917","TLE_LINE1":"1 53930U 22119AW  23070.70052689 -.00000118  00000-0  10673-4 0  9996","TLE_LINE2":"2 53930  53.2197 174.9658 0001099  99.1189 260.9927 15.08848437 26815","COUNTRY_CODE":"US","REF_FRAME":"TEME","EPOCH":"2023-03-11T16:48:45.523296"},{"ELEMENT_SET_NO":"999","ARG_OF_PERICENTER":"134.1029","APOAPSIS":"541.050","FILE":"3857847","MEAN_ANOMALY":"226.0120","DECAY_DATE":null,"RCS_SIZE":"LARGE","MEAN_ELEMENT_THEORY":"SGP4","SEMIMAJOR_AXIS":"6917.873","MEAN_MOTION_DOT":"0.00027651","TIME_SYSTEM":"UTC","NORAD_CAT_ID":"53931","RA_OF_ASC_NODE":"169.6758","OBJECT_TYPE":"PAYLOAD","ECCENTRICITY":"0.00018960","INCLINATION":"53.2193","BSTAR":"0.00174850000000","LAUNCH_DATE":"2022-09-24","PERIOD":"95.437","MEAN_MOTION":"15.08842327","MEAN_MOTION_DDOT":"0.0000000000000","PERIAPSIS":"538.427","TLE_LINE2":"2 53931  53.2193 169.6758 0001896 134.1029 226.0120 15.08842327 26890","TLE_LINE1":"1 53931U 22119AX  23070.76635306  .00027651  00000-0  17485-2 0  9992","EPOCH":"2023-03-11T18:23:32.904384","REF_FRAME":"TEME","COUNTRY_CODE":"US","SITE":"AFETR","REV_AT_EPOCH":"2689","CENTER_NAME":"EARTH","CLASSIFICATION_TYPE":"U","GP_ID":"227892167","OBJECT_ID":"2022-119AX","OBJECT_NAME":"STARLINK-5015","EPHEMERIS_TYPE":"0"},{"RA_OF_ASC_NODE":"169.4824","SEMIMAJOR_AXIS":"6913.029","MEAN_MOTION_DOT":"0.00016368","TIME_SYSTEM":"UTC","NORAD_CAT_ID":"53932","MEAN_ELEMENT_THEORY":"SGP4","DECAY_DATE":null,"RCS_SIZE":"LARGE","APOAPSIS":"535.759","FILE":"3857847","MEAN_ANOMALY":"150.0206","ELEMENT_SET_NO":"999","ARG_OF_PERICENTER":"60.3162","MEAN_MOTION_DDOT":"0.0000000000000","PERIAPSIS":"534.029","PERIOD":"95.337","MEAN_MOTION":"15.10428547","LAUNCH_DATE":"2022-09-24","INCLINATION":"53.2178","BSTAR":"0.00099978000000","OBJECT_TYPE":"PAYLOAD","ECCENTRICITY":"0.00012510","COUNTRY_CODE":"US","REF_FRAME":"TEME","EPOCH":"2023-03-11T22:00:00.999936","TLE_LINE1":"1 53932U 22119AY  23070.91667824  .00016368  00000-0  99978-3 0  9991","TLE_LINE2":"2 53932  53.2178 169.4824 0001251  60.3162 150.0206 15.10428547  1306","OBJECT_ID":"2022-119AY","EPHEMERIS_TYPE":"0","OBJECT_NAME":"STARLINK-4772","GP_ID":"227892419","CLASSIFICATION_TYPE":"U","REV_AT_EPOCH":"130","CENTER_NAME":"EARTH","SITE":"AFETR"},{"MEAN_MOTION_DDOT":"0.0000000000000","PERIAPSIS":"538.619","LAUNCH_DATE":"2022-09-24","PERIOD":"95.438","MEAN_MOTION":"15.08831397","BSTAR":"0.00070095000000","INCLINATION":"53.2174","OBJECT_TYPE":"PAYLOAD","ECCENTRICITY":"0.00016660","RA_OF_ASC_NODE":"174.7301","MEAN_ELEMENT_THEORY":"SGP4","SEMIMAJOR_AXIS":"6917.907","MEAN_MOTION_DOT":"0.00010883","NORAD_CAT_ID":"53933","TIME_SYSTEM":"UTC","DECAY_DATE":null,"RCS_SIZE":"LARGE","ELEMENT_SET_NO":"999","ARG_OF_PERICENTER":"111.2942","APOAPSIS":"540.924","FILE":"3857847","MEAN_ANOMALY":"248.8229","GP_ID":"227892670","OBJECT_ID":"2022-119AZ","EPHEMERIS_TYPE":"0","OBJECT_NAME":"STARLINK-4782","CLASSIFICATION_TYPE":"U","SITE":"AFETR","REV_AT_EPOCH":"2682","CENTER_NAME":"EARTH","REF_FRAME":"TEME","COUNTRY_CODE":"US","EPOCH":"2023-03-11T18:40:04.243296","TLE_LINE1":"1 53933U 22119AZ  23070.77782689  .00010883  00000-0  70095-3 0  9998","TLE_LINE2":"2 53933  53.2174 174.7301 0001666 111.2942 248.8229 15.08831397 26827"},{"INCLINATION":"53.2181","BSTAR":"0.00263860000000","OBJECT_TYPE":"PAYLOAD","ECCENTRICITY":"0.00016420","MEAN_MOTION_DDOT":"0.0000000000000","PERIAPSIS":"538.534","PERIOD":"95.436","MEAN_MOTION":"15.08864684","LAUNCH_DATE":"2022-09-24","DECAY_DATE":null,"RCS_SIZE":"LARGE","APOAPSIS":"540.806","MEAN_ANOMALY":"281.9848","FILE":"3857847","ELEMENT_SET_NO":"999","ARG_OF_PERICENTER":"78.1328","RA_OF_ASC_NODE":"169.8450","SEMIMAJOR_AXIS":"6917.805","MEAN_MOTION_DOT":"0.00041984","NORAD_CAT_ID":"53934","TIME_SYSTEM":"UTC","MEAN_ELEMENT_THEORY":"SGP4","CLASSIFICATION_TYPE":"U","REV_AT_EPOCH":"2691","CENTER_NAME":"EARTH","SITE":"AFETR","OBJECT_ID":"2022-119BA","OBJECT_NAME":"STARLINK-4775","EPHEMERIS_TYPE":"0","GP_ID":"227891418","TLE_LINE1":"1 53934U 22119BA  23070.79486596  .00041984  00000-0  26386-2 0  9998","TLE_LINE2":"2 53934  53.2181 169.8450 0001642  78.1328 281.9848 15.08864684 26919","COUNTRY_CODE":"US","REF_FRAME":"TEME","EPOCH":"2023-03-11T19:04:36.418944"},{"INCLINATION":"53.2176","BSTAR":"0.00068224000000","OBJECT_TYPE":"PAYLOAD","ECCENTRICITY":"0.00011950","MEAN_MOTION_DDOT":"0.0000000000000","PERIAPSIS":"539.046","LAUNCH_DATE":"2022-09-24","PERIOD":"95.440","MEAN_MOTION":"15.08798499","DECAY_DATE":null,"RCS_SIZE":"LARGE","ELEMENT_SET_NO":"999","ARG_OF_PERICENTER":"93.0413","APOAPSIS":"540.699","FILE":"3857847","MEAN_ANOMALY":"304.1975","RA_OF_ASC_NODE":"159.1265","MEAN_ELEMENT_THEORY":"SGP4","SEMIMAJOR_AXIS":"6918.007","MEAN_MOTION_DOT":"0.00010574","TIME_SYSTEM":"UTC","NORAD_CAT_ID":"53935","CLASSIFICATION_TYPE":"U","SITE":"AFETR","REV_AT_EPOCH":"130","CENTER_NAME":"EARTH","GP_ID":"227891668","OBJECT_ID":"2022-119BB","EPHEMERIS_TYPE":"0","OBJECT_NAME":"STARLINK-5000","TLE_LINE1":"1 53935U 22119BB  23070.91667824  .00010574  00000-0  68224-3 0  9997","TLE_LINE2":"2 53935  53.2176 159.1265 0001195  93.0413 304.1975 15.08798499  1309","REF_FRAME":"TEME","COUNTRY_CODE":"US","EPOCH":"2023-03-11T22:00:00.999936"}];
